STARLINK-36781          
1 67931U 26036AD  26070.77576719  .00378020  00000+0  17092-2 0  9997
2 67931  42.9990 236.7455 0002116 264.4761  95.5870 15.82157430  4007
STARLINK-36301          
1 67932U 26037A   26070.83335647  .00131597  00000+0  61996-3 0  9998
2 67932  42.9981 185.4420 0001666 277.2417 338.0089 15.81949167  3459
STARLINK-36852          
1 67933U 26037B   26070.83335647  .00131394  00000+0  61927-3 0  9998
2 67933  42.9982 185.4311 0001675 269.6405 349.9048 15.81940450  3544
STARLINK-36861          
1 67934U 26037C   26070.83335647  .00124345  00000+0  58618-3 0  9990
2 67934  42.9981 185.4205 0001964 284.3311 339.4641 15.81957616  3542
STARLINK-36860          
1 67935U 26037D   26070.83335647  .00098848  00000+0  46768-3 0  9992
2 67935  42.9981 185.4107 0001743 260.7067   7.3627 15.81967121  3542
STARLINK-36848          
1 67936U 26037E   26070.83335647  .00113375  00000+0  53549-3 0  9991
2 67936  42.9980 185.3880 0001725 286.2868 350.3327 15.81953294  3545
STARLINK-36370          
1 67937U 26037F   26070.83335647  .00095800  00000+0  45346-3 0  9990
2 67937  42.9980 185.4001 0001322 265.4068   6.9357 15.81969427  3548
STARLINK-36371          
1 67938U 26037G   26070.83335647  .00282695  00000+0  13114-2 0  9998
2 67938  42.9982 185.3772 0001932 291.2146 349.7002 15.81856075  3545
STARLINK-36246          
1 67939U 26037H   26070.83335647  .00260605  00000+0  12112-2 0  9993
2 67939  42.9981 185.3670 0001706 285.3552 359.8261 15.81874038  3454
STARLINK-36907          
1 67940U 26037J   26070.83335647  .00249059  00000+0  11595-2 0  9999
2 67940  42.9982 185.3333 0001634 275.3038  22.7051 15.81869919  3546
STARLINK-36927          
1 67941U 26037K   26070.83335647  .00256661  00000+0  11945-2 0  9996
2 67941  42.9982 185.3125 0001436 265.9229  40.6392 15.81855608  3540
STARLINK-36914          
1 67942U 26037L   26070.83335647  .00282677  00000+0  13113-2 0  9992
2 67942  42.9980 185.3553 0001598 295.9385 353.5262 15.81856424  3548
STARLINK-36851          
1 67943U 26037M   26070.83335647  .00132011  00000+0  62196-3 0  9995
2 67943  42.9982 185.3458 0001558 285.0620   8.6498 15.81946085  3545
STARLINK-36892          
1 67944U 26037N   26070.83335647  .00123453  00000+0  58228-3 0  9997
2 67944  42.9982 185.3236 0001404 279.8771  22.3850 15.81950183  3547
STARLINK-36908          
1 67945U 26037P   26070.83335647  .00121758  00000+0  57427-3 0  9994
2 67945  42.9983 185.3020 0001809 270.1545  40.6396 15.81955499  3545
STARLINK-36909          
1 67946U 26037Q   26070.83335647  .00274547  00000+0  12746-2 0  9994
2 67946  42.9982 185.2911 0001818 295.1532  19.9433 15.81861167  3545
STARLINK-36920          
1 67947U 26037R   26070.83335647  .00093191  00000+0  44127-3 0  9998
2 67947  42.9984 185.2810 0001850 280.5313  38.8022 15.81970786  3549
