[{"OBJECT_NAME":"STARLINK-36781","OBJECT_ID":"2026-036AD","EPOCH":"2026-03-11T18:37:06.285216","MEAN_MOTION":15.8215743,"ECCENTRICITY":0.0002116,"INCLINATION":42.999,"RA_OF_ASC_NODE":236.7455,"ARG_OF_PERICENTER":264.4761,"MEAN_ANOMALY":95.587,"EPHEMERIS_TYPE":0,"CLASSIFICATION_TYPE":"U","NORAD_CAT_ID":67931,"ELEMENT_SET_NO":999,"REV_AT_EPOCH":400,"BSTAR":0.0017092,"MEAN_MOTION_DOT":0.0037802,"MEAN_MOTION_DDOT":0},{"OBJECT_NAME":"STARLINK-36301","OBJECT_ID":"2026-037A","EPOCH":"2026-03-11T20:00:01.999008","MEAN_MOTION":15.81949167,"ECCENTRICITY":0.0001666,"INCLINATION":42.9981,"RA_OF_ASC_NODE":185.442,"ARG_OF_PERICENTER":277.2417,"MEAN_ANOMALY":338.0089,"EPHEMERIS_TYPE":0,"CLASSIFICATION_TYPE":"U","NORAD_CAT_ID":67932,"ELEMENT_SET_NO":999,"REV_AT_EPOCH":345,"BSTAR":0.00061996,"MEAN_MOTION_DOT":0.00131597,"MEAN_MOTION_DDOT":0},{"OBJECT_NAME":"STARLINK-36852","OBJECT_ID":"2026-037B","EPOCH":"2026-03-11T20:00:01.999008","MEAN_MOTION":15.8194045,"ECCENTRICITY":0.0001675,"INCLINATION":42.9982,"RA_OF_ASC_NODE":185.4311,"ARG_OF_PERICENTER":269.6405,"MEAN_ANOMALY":349.9048,"EPHEMERIS_TYPE":0,"CLASSIFICATION_TYPE":"U","NORAD_CAT_ID":67933,"ELEMENT_SET_NO":999,"REV_AT_EPOCH":354,"BSTAR":0.00061927,"MEAN_MOTION_DOT":0.00131394,"MEAN_MOTION_DDOT":0},{"OBJECT_NAME":"STARLINK-36861","OBJECT_ID":"2026-037C","EPOCH":"2026-03-11T20:00:01.999008","MEAN_MOTION":15.81957616,"ECCENTRICITY":0.0001964,"INCLINATION":42.9981,"RA_OF_ASC_NODE":185.4205,"ARG_OF_PERICENTER":284.3311,"MEAN_ANOMALY":339.4641,"EPHEMERIS_TYPE":0,"CLASSIFICATION_TYPE":"U","NORAD_CAT_ID":67934,"ELEMENT_SET_NO":999,"REV_AT_EPOCH":354,"BSTAR":0.00058618,"MEAN_MOTION_DOT":0.00124345,"MEAN_MOTION_DDOT":0},{"OBJECT_NAME":"STARLINK-36860","OBJECT_ID":"2026-037D","EPOCH":"2026-03-11T20:00:01.999008","MEAN_MOTION":15.81967121,"ECCENTRICITY":0.0001743,"INCLINATION":42.9981,"RA_OF_ASC_NODE":185.4107,"ARG_OF_PERICENTER":260.7067,"MEAN_ANOMALY":7.3627,"EPHEMERIS_TYPE":0,"CLASSIFICATION_TYPE":"U","NORAD_CAT_ID":67935,"ELEMENT_SET_NO":999,"REV_AT_EPOCH":354,"BSTAR":0.00046768,"MEAN_MOTION_DOT":0.00098848,"MEAN_MOTION_DDOT":0},{"OBJECT_NAME":"STARLINK-36848","OBJECT_ID":"2026-037E","EPOCH":"2026-03-11T20:00:01.999008","MEAN_MOTION":15.81953294,"ECCENTRICITY":0.0001725,"INCLINATION":42.998,"RA_OF_ASC_NODE":185.388,"ARG_OF_PERICENTER":286.2868,"MEAN_ANOMALY":350.3327,"EPHEMERIS_TYPE":0,"CLASSIFICATION_TYPE":"U","NORAD_CAT_ID":67936,"ELEMENT_SET_NO":999,"REV_AT_EPOCH":354,"BSTAR":0.00053549,"MEAN_MOTION_DOT":0.00113375,"MEAN_MOTION_DDOT":0},{"OBJECT_NAME":"STARLINK-36370","OBJECT_ID":"2026-037F","EPOCH":"2026-03-11T20:00:01.999008","MEAN_MOTION":15.81969427,"ECCENTRICITY":0.0001322,"INCLINATION":42.998,"RA_OF_ASC_NODE":185.4001,"ARG_OF_PERICENTER":265.4068,"MEAN_ANOMALY":6.9357,"EPHEMERIS_TYPE":0,"CLASSIFICATION_TYPE":"U","NORAD_CAT_ID":67937,"ELEMENT_SET_NO":999,"REV_AT_EPOCH":354,"BSTAR":0.00045346,"MEAN_MOTION_DOT":0.000958,"MEAN_MOTION_DDOT":0},{"OBJECT_NAME":"STARLINK-36371","OBJECT_ID":"2026-037G","EPOCH":"2026-03-11T20:00:01.999008","MEAN_MOTION":15.81856075,"ECCENTRICITY":0.0001932,"INCLINATION":42.9982,"RA_OF_ASC_NODE":185.3772,"ARG_OF_PERICENTER":291.2146,"MEAN_ANOMALY":349.7002,"EPHEMERIS_TYPE":0,"CLASSIFICATION_TYPE":"U","NORAD_CAT_ID":67938,"ELEMENT_SET_NO":999,"REV_AT_EPOCH":354,"BSTAR":0.0013114,"MEAN_MOTION_DOT":0.00282695,"MEAN_MOTION_DDOT":0},{"OBJECT_NAME":"STARLINK-36246","OBJECT_ID":"2026-037H","EPOCH":"2026-03-11T20:00:01.999008","MEAN_MOTION":15.81874038,"ECCENTRICITY":0.0001706,"INCLINATION":42.9981,"RA_OF_ASC_NODE":185.367,"ARG_OF_PERICENTER":285.3552,"MEAN_ANOMALY":359.8261,"EPHEMERIS_TYPE":0,"CLASSIFICATION_TYPE":"U","NORAD_CAT_ID":67939,"ELEMENT_SET_NO":999,"REV_AT_EPOCH":345,"BSTAR":0.0012112,"MEAN_MOTION_DOT":0.00260605,"MEAN_MOTION_DDOT":0},{"OBJECT_NAME":"STARLINK-36907","OBJECT_ID":"2026-037J","EPOCH":"2026-03-11T20:00:01.999008","MEAN_MOTION":15.81869919,"ECCENTRICITY":0.0001634,"INCLINATION":42.9982,"RA_OF_ASC_NODE":185.3333,"ARG_OF_PERICENTER":275.3038,"MEAN_ANOMALY":22.7051,"EPHEMERIS_TYPE":0,"CLASSIFICATION_TYPE":"U","NORAD_CAT_ID":67940,"ELEMENT_SET_NO":999,"REV_AT_EPOCH":354,"BSTAR":0.0011595,"MEAN_MOTION_DOT":0.00249059,"MEAN_MOTION_DDOT":0},{"OBJECT_NAME":"STARLINK-36927","OBJECT_ID":"2026-037K","EPOCH":"2026-03-11T20:00:01.999008","MEAN_MOTION":15.81855608,"ECCENTRICITY":0.0001436,"INCLINATION":42.9982,"RA_OF_ASC_NODE":185.3125,"ARG_OF_PERICENTER":265.9229,"MEAN_ANOMALY":40.6392,"EPHEMERIS_TYPE":0,"CLASSIFICATION_TYPE":"U","NORAD_CAT_ID":67941,"ELEMENT_SET_NO":999,"REV_AT_EPOCH":354,"BSTAR":0.0011945,"MEAN_MOTION_DOT":0.00256661,"MEAN_MOTION_DDOT":0},{"OBJECT_NAME":"STARLINK-36914","OBJECT_ID":"2026-037L","EPOCH":"2026-03-11T20:00:01.999008","MEAN_MOTION":15.81856424,"ECCENTRICITY":0.0001598,"INCLINATION":42.998,"RA_OF_ASC_NODE":185.3553,"ARG_OF_PERICENTER":295.9385,"MEAN_ANOMALY":353.5262,"EPHEMERIS_TYPE":0,"CLASSIFICATION_TYPE":"U","NORAD_CAT_ID":67942,"ELEMENT_SET_NO":999,"REV_AT_EPOCH":354,"BSTAR":0.0013113,"MEAN_MOTION_DOT":0.00282677,"MEAN_MOTION_DDOT":0},{"OBJECT_NAME":"STARLINK-36851","OBJECT_ID":"2026-037M","EPOCH":"2026-03-11T20:00:01.999008","MEAN_MOTION":15.81946085,"ECCENTRICITY":0.0001558,"INCLINATION":42.9982,"RA_OF_ASC_NODE":185.3458,"ARG_OF_PERICENTER":285.062,"MEAN_ANOMALY":8.6498,"EPHEMERIS_TYPE":0,"CLASSIFICATION_TYPE":"U","NORAD_CAT_ID":67943,"ELEMENT_SET_NO":999,"REV_AT_EPOCH":354,"BSTAR":0.00062196,"MEAN_MOTION_DOT":0.00132011,"MEAN_MOTION_DDOT":0},{"OBJECT_NAME":"STARLINK-36892","OBJECT_ID":"2026-037N","EPOCH":"2026-03-11T20:00:01.999008","MEAN_MOTION":15.81950183,"ECCENTRICITY":0.0001404,"INCLINATION":42.9982,"RA_OF_ASC_NODE":185.3236,"ARG_OF_PERICENTER":279.8771,"MEAN_ANOMALY":22.385,"EPHEMERIS_TYPE":0,"CLASSIFICATION_TYPE":"U","NORAD_CAT_ID":67944,"ELEMENT_SET_NO":999,"REV_AT_EPOCH":354,"BSTAR":0.00058228,"MEAN_MOTION_DOT":0.00123453,"MEAN_MOTION_DDOT":0},{"OBJECT_NAME":"STARLINK-36908","OBJECT_ID":"2026-037P","EPOCH":"2026-03-11T20:00:01.999008","MEAN_MOTION":15.81955499,"ECCENTRICITY":0.0001809,"INCLINATION":42.9983,"RA_OF_ASC_NODE":185.302,"ARG_OF_PERICENTER":270.1545,"MEAN_ANOMALY":40.6396,"EPHEMERIS_TYPE":0,"CLASSIFICATION_TYPE":"U","NORAD_CAT_ID":67945,"ELEMENT_SET_NO":999,"REV_AT_EPOCH":354,"BSTAR":0.00057427,"MEAN_MOTION_DOT":0.00121758,"MEAN_MOTION_DDOT":0},{"OBJECT_NAME":"STARLINK-36909","OBJECT_ID":"2026-037Q","EPOCH":"2026-03-11T20:00:01.999008","MEAN_MOTION":15.81861167,"ECCENTRICITY":0.0001818,"INCLINATION":42.9982,"RA_OF_ASC_NODE":185.2911,"ARG_OF_PERICENTER":295.1532,"MEAN_ANOMALY":19.9433,"EPHEMERIS_TYPE":0,"CLASSIFICATION_TYPE":"U","NORAD_CAT_ID":67946,"ELEMENT_SET_NO":999,"REV_AT_EPOCH":354,"BSTAR":0.0012746,"MEAN_MOTION_DOT":0.00274547,"MEAN_MOTION_DDOT":0},{"OBJECT_NAME":"STARLINK-36920","OBJECT_ID":"2026-037R","EPOCH":"2026-03-11T20:00:01.999008","MEAN_MOTION":15.81970786,"ECCENTRICITY":0.000185,"INCLINATION":42.9984,"RA_OF_ASC_NODE":185.281,"ARG_OF_PERICENTER":280.5313,"MEAN_ANOMALY":38.8022,"EPHEMERIS_TYPE":0,"CLASSIFICATION_TYPE":"U","NORAD_CAT_ID":67947,"ELEMENT_SET_NO":999,"REV_AT_EPOCH":354,"BSTAR":0.00044127,"MEAN_MOTION_DOT":0.00093191,"MEAN_MOTION_DDOT":0}]
